{
  "type": "FeatureCollection",
  "features": [
    {
      "type": "Feature",
      "properties": {
        "norad_id": 66461,
        "name": "STARLINK-35132",
        "group": "last-30-days",
        "lat": 37.99086741572486,
        "lon": -177.68833544769865,
        "alt_km": 439.6605082982578,
        "timestamp": "2025-12-14T20:40:30.513783+00:00",
        "meta_object_name": "STARLINK-35132",
        "meta_object_id": "2025-262F",
        "meta_epoch": "2025-12-14T06:10:25.228416",
        "meta_mean_motion": 15.40680665,
        "meta_eccentricity": 0.00030817,
        "meta_inclination": 43.007,
        "meta_ra_of_asc_node": 62.7174,
        "meta_arg_of_pericenter": 266.2071,
        "meta_mean_anomaly": 93.8433,
        "meta_ephemeris_type": 0,
        "meta_classification_type": "U",
        "meta_norad_cat_id": 66461,
        "meta_element_set_no": 999,
        "meta_rev_at_epoch": 579,
        "meta_bstar": 0.0019017995,
        "meta_mean_motion_dot": 0.00079931,
        "meta_mean_motion_ddot": 0,
        "tle_line1": "1 66461U 25262F   25348.25723644  .00079931  00000+0  19018-2 0  9994",
        "tle_line2": "2 66461  43.0070  62.7174 0003081 266.2071  93.8433 15.40680665  5794"
      },
      "geometry": {
        "type": "Point",
        "coordinates": [
          -177.68833544769865,
          37.99086741572486
        ]
      }
    },
    {
      "type": "Feature",
      "properties": {
        "norad_id": 66462,
        "name": "STARLINK-35499",
        "group": "last-30-days",
        "lat": 32.46133551476073,
        "lon": -163.86472052801562,
        "alt_km": 436.5676433559456,
        "timestamp": "2025-12-14T20:40:30.513794+00:00",
        "meta_object_name": "STARLINK-35499",
        "meta_object_id": "2025-262G",
        "meta_epoch": "2025-12-14T06:07:11.433216",
        "meta_mean_motion": 15.4071747,
        "meta_eccentricity": 0.00032077,
        "meta_inclination": 42.9912,
        "meta_ra_of_asc_node": 62.6986,
        "meta_arg_of_pericenter": 141.844,
        "meta_mean_anomaly": 218.2644,
        "meta_ephemeris_type": 0,
        "meta_classification_type": "U",
        "meta_norad_cat_id": 66462,
        "meta_element_set_no": 999,
        "meta_rev_at_epoch": 579,
        "meta_bstar": 0.0012175979,
        "meta_mean_motion_dot": 0.00050934,
        "meta_mean_motion_ddot": 0,
        "tle_line1": "1 66462U 25262G   25348.25499344  .00050934  00000+0  12176-2 0  9992",
        "tle_line2": "2 66462  42.9912  62.6986 0003207 141.8440 218.2644 15.40717470  5798"
      },
      "geometry": {
        "type": "Point",
        "coordinates": [
          -163.86472052801562,
          32.46133551476073
        ]
      }
    },
    {
      "type": "Feature",
      "properties": {
        "norad_id": 66463,
        "name": "STARLINK-35463",
        "group": "last-30-days",
        "lat": 18.186811018768218,
        "lon": -141.50158880648812,
        "alt_km": 441.26265598114605,
        "timestamp": "2025-12-14T20:40:30.513804+00:00",
        "meta_object_name": "STARLINK-35463",
        "meta_object_id": "2025-262H",
        "meta_epoch": "2025-12-14T06:00:44.746560",
        "meta_mean_motion": 15.40655179,
        "meta_eccentricity": 9.815e-05,
        "meta_inclination": 42.9991,
        "meta_ra_of_asc_node": 62.6641,
        "meta_arg_of_pericenter": 249.3838,
        "meta_mean_anomaly": 110.6914,
        "meta_ephemeris_type": 0,
        "meta_classification_type": "U",
        "meta_norad_cat_id": 66463,
        "meta_element_set_no": 999,
        "meta_rev_at_epoch": 579,
        "meta_bstar": 0.0010765274,
        "meta_mean_motion_dot": 0.00044863,
        "meta_mean_motion_ddot": 0,
        "tle_line1": "1 66463U 25262H   25348.25051790  .00044863  00000+0  10765-2 0  9998",
        "tle_line2": "2 66463  42.9991  62.6641 0000981 249.3838 110.6914 15.40655179  5797"
      },
      "geometry": {
        "type": "Point",
        "coordinates": [
          -141.50158880648812,
          18.186811018768218
        ]
      }
    },
    {
      "type": "Feature",
      "properties": {
        "norad_id": 66464,
        "name": "STARLINK-35435",
        "group": "last-30-days",
        "lat": 25.771525617242506,
        "lon": -152.0312343891732,
        "alt_km": 440.3146169156462,
        "timestamp": "2025-12-14T20:40:30.513818+00:00",
        "meta_object_name": "STARLINK-35435",
        "meta_object_id": "2025-262J",
        "meta_epoch": "2025-12-14T06:03:58.025088",
        "meta_mean_motion": 15.40678421,
        "meta_eccentricity": 0.00015488,
        "meta_inclination": 43.0015,
        "meta_ra_of_asc_node": 62.6813,
        "meta_arg_of_pericenter": 254.8467,
        "meta_mean_anomaly": 105.2218,
        "meta_ephemeris_type": 0,
        "meta_classification_type": "U",
        "meta_norad_cat_id": 66464,
        "meta_element_set_no": 999,
        "meta_rev_at_epoch": 579,
        "meta_bstar": 0.0013927105,
        "meta_mean_motion_dot": 0.00058277,
        "meta_mean_motion_ddot": 0,
        "tle_line1": "1 66464U 25262J   25348.25275492  .00058277  00000+0  13927-2 0  9993",
        "tle_line2": "2 66464  43.0015  62.6813 0001548 254.8467 105.2218 15.40678421  5799"
      },
      "geometry": {
        "type": "Point",
        "coordinates": [
          -152.0312343891732,
          25.771525617242506
        ]
      }
    },
    {
      "type": "Feature",
      "properties": {
        "norad_id": 66465,
        "name": "STARLINK-35448",
        "group": "last-30-days",
        "lat": 1.5725272021307906,
        "lon": -122.6051220653785,
        "alt_km": 443.45434141615624,
        "timestamp": "2025-12-14T20:40:30.513829+00:00",
        "meta_object_name": "STARLINK-35448",
        "meta_object_id": "2025-262K",
        "meta_epoch": "2025-12-14T06:00:02.999808",
        "meta_mean_motion": 15.40663166,
        "meta_eccentricity": 0.00012594,
        "meta_inclination": 43.0004,
        "meta_ra_of_asc_node": 62.6073,
        "meta_arg_of_pericenter": 261.4614,
        "meta_mean_anomaly": 120.8186,
        "meta_ephemeris_type": 0,
        "meta_classification_type": "U",
        "meta_norad_cat_id": 66465,
        "meta_element_set_no": 999,
        "meta_rev_at_epoch": 588,
        "meta_bstar": 0.0015471734,
        "meta_mean_motion_dot": 0.00064797,
        "meta_mean_motion_ddot": 0,
        "tle_line1": "1 66465U 25262K   25348.25003472  .00064797  00000+0  15472-2 0  9992",
        "tle_line2": "2 66465  43.0004  62.6073 0001259 261.4614 120.8186 15.40663166  5880"
      },
      "geometry": {
        "type": "Point",
        "coordinates": [
          -122.6051220653785,
          1.5725272021307906
        ]
      }
    },
    {
      "type": "Feature",
      "properties": {
        "norad_id": 66466,
        "name": "STARLINK-35388",
        "group": "last-30-days",
        "lat": -6.879978121603935,
        "lon": -113.50894761938,
        "alt_km": 444.31742758279506,
        "timestamp": "2025-12-14T20:40:30.513839+00:00",
        "meta_object_name": "STARLINK-35388",
        "meta_object_id": "2025-262L",
        "meta_epoch": "2025-12-14T06:00:02.999808",
        "meta_mean_motion": 15.40668059,
        "meta_eccentricity": 0.00014748,
        "meta_inclination": 43.0004,
        "meta_ra_of_asc_node": 62.5757,
        "meta_arg_of_pericenter": 260.9405,
        "meta_mean_anomaly": 133.7758,
        "meta_ephemeris_type": 0,
        "meta_classification_type": "U",
        "meta_norad_cat_id": 66466,
        "meta_element_set_no": 999,
        "meta_rev_at_epoch": 588,
        "meta_bstar": 0.0012222448,
        "meta_mean_motion_dot": 0.00051041,
        "meta_mean_motion_ddot": 0,
        "tle_line1": "1 66466U 25262L   25348.25003472  .00051041  00000+0  12222-2 0  9991",
        "tle_line2": "2 66466  43.0004  62.5757 0001474 260.9405 133.7758 15.40668059  5884"
      },
      "geometry": {
        "type": "Point",
        "coordinates": [
          -113.50894761938,
          -6.879978121603935
        ]
      }
    },
    {
      "type": "Feature",
      "properties": {
        "norad_id": 66467,
        "name": "STARLINK-35682",
        "group": "last-30-days",
        "lat": 10.00991184077287,
        "lon": -131.80656477681057,
        "alt_km": 442.5960029678499,
        "timestamp": "2025-12-14T20:40:30.513853+00:00",
        "meta_object_name": "STARLINK-35682",
        "meta_object_id": "2025-262M",
        "meta_epoch": "2025-12-14T00:00:04.000320",
        "meta_mean_motion": 15.40649325,
        "meta_eccentricity": 0.00016546,
        "meta_inclination": 43.0009,
        "meta_ra_of_asc_node": 64.0766,
        "meta_arg_of_pericenter": 260.4818,
        "meta_mean_anomaly": 161.1928,
        "meta_ephemeris_type": 0,
        "meta_classification_type": "U",
        "meta_norad_cat_id": 66467,
        "meta_element_set_no": 999,
        "meta_rev_at_epoch": 584,
        "meta_bstar": 0.00089064183,
        "meta_mean_motion_dot": 0.00037019,
        "meta_mean_motion_ddot": 0,
        "tle_line1": "1 66467U 25262M   25348.00004630  .00037019  00000+0  89064-3 0  9990",
        "tle_line2": "2 66467  43.0009  64.0766 0001654 260.4818 161.1928 15.40649325  5845"
      },
      "geometry": {
        "type": "Point",
        "coordinates": [
          -131.80656477681057,
          10.00991184077287
        ]
      }
    }
  ]
}